[{"OBJECT_NAME":"SYNCOM 2 (A 26)","OBJECT_ID":"1963-031A","EPOCH":"2026-04-04T14:01:37.464096","MEAN_MOTION":1.00253051,"ECCENTRICITY":0.0005916,"INCLINATION":30.1409,"RA_OF_ASC_NODE":301.4865,"ARG_OF_PERICENTER":199.6121,"MEAN_ANOMALY":333.4375,"EPHEMERIS_TYPE":0,"CLASSIFICATION_TYPE":"U","NORAD_CAT_ID":634,"ELEMENT_SET_NO":999,"REV_AT_EPOCH":22962,"BSTAR":0,"MEAN_MOTION_DOT":-5.4e-7,"MEAN_MOTION_DDOT":0},{"OBJECT_NAME":"SYNCOM 3","OBJECT_ID":"1964-047A","EPOCH":"2026-04-03T23:19:11.913024","MEAN_MOTION":1.00385476,"ECCENTRICITY":0.00032827,"INCLINATION":6.787,"RA_OF_ASC_NODE":65.2483,"ARG_OF_PERICENTER":187.0008,"MEAN_ANOMALY":336.8827,"EPHEMERIS_TYPE":0,"CLASSIFICATION_TYPE":"U","NORAD_CAT_ID":858,"ELEMENT_SET_NO":999,"REV_AT_EPOCH":5272,"BSTAR":0,"MEAN_MOTION_DOT":1.13e-6,"MEAN_MOTION_DDOT":0},{"OBJECT_NAME":"DELTA 1 R/B","OBJECT_ID":"1964-047B","EPOCH":"2026-04-04T18:24:47.142720","MEAN_MOTION":2.05111488,"ECCENTRICITY":0.7114798,"INCLINATION":16.8117,"RA_OF_ASC_NODE":354.1473,"ARG_OF_PERICENTER":347.1197,"MEAN_ANOMALY":1.7173,"EPHEMERIS_TYPE":0,"CLASSIFICATION_TYPE":"U","NORAD_CAT_ID":862,"ELEMENT_SET_NO":999,"REV_AT_EPOCH":25665,"BSTAR":0,"MEAN_MOTION_DOT":-2.42e-6,"MEAN_MOTION_DDOT":0},{"OBJECT_NAME":"INTELSAT 1-F1","OBJECT_ID":"1965-028A","EPOCH":"2026-04-02T15:15:36.683136","MEAN_MOTION":1.00178935,"ECCENTRICITY":0.00051122,"INCLINATION":6.974,"RA_OF_ASC_NODE":64.4909,"ARG_OF_PERICENTER":161.826,"MEAN_ANOMALY":94.4055,"EPHEMERIS_TYPE":0,"CLASSIFICATION_TYPE":"U","NORAD_CAT_ID":1317,"ELEMENT_SET_NO":999,"REV_AT_EPOCH":12641,"BSTAR":0,"MEAN_MOTION_DOT":-1.18e-6,"MEAN_MOTION_DDOT":0},{"OBJECT_NAME":"DELTA 1 R/B(2)","OBJECT_ID":"1965-028B","EPOCH":"2026-04-04T19:42:50.308704","MEAN_MOTION":2.11825475,"ECCENTRICITY":0.6937975,"INCLINATION":17.8878,"RA_OF_ASC_NODE":286.0028,"ARG_OF_PERICENTER":113.6141,"MEAN_ANOMALY":39.8131,"EPHEMERIS_TYPE":0,"CLASSIFICATION_TYPE":"U","NORAD_CAT_ID":1318,"ELEMENT_SET_NO":999,"REV_AT_EPOCH":10577,"BSTAR":0,"MEAN_MOTION_DOT":-1.9e-6,"MEAN_MOTION_DDOT":0},{"OBJECT_NAME":"INTELSAT 2-F1","OBJECT_ID":"1966-096A","EPOCH":"2026-04-04T09:35:00.480768","MEAN_MOTION":2.00367469,"ECCENTRICITY":0.63974818,"INCLINATION":17.6974,"RA_OF_ASC_NODE":68.8862,"ARG_OF_PERICENTER":156.1081,"MEAN_ANOMALY":256.3623,"EPHEMERIS_TYPE":0,"CLASSIFICATION_TYPE":"U","NORAD_CAT_ID":2514,"ELEMENT_SET_NO":999,"REV_AT_EPOCH":9333,"BSTAR":0,"MEAN_MOTION_DOT":-3.44e-6,"MEAN_MOTION_DDOT":0},{"OBJECT_NAME":"ATS 1","OBJECT_ID":"1966-110A","EPOCH":"2026-04-04T20:24:51.778656","MEAN_MOTION":1.00320069,"ECCENTRICITY":0.0006575,"INCLINATION":4.7904,"RA_OF_ASC_NODE":70.6088,"ARG_OF_PERICENTER":193.9433,"MEAN_ANOMALY":15.838,"EPHEMERIS_TYPE":0,"CLASSIFICATION_TYPE":"U","NORAD_CAT_ID":2608,"ELEMENT_SET_NO":999,"REV_AT_EPOCH":13406,"BSTAR":0,"MEAN_MOTION_DOT":-2.64e-6,"MEAN_MOTION_DDOT":0},{"OBJECT_NAME":"INTELSAT 2-F2","OBJECT_ID":"1967-001A","EPOCH":"2026-04-04T21:10:18.615360","MEAN_MOTION":1.00208749,"ECCENTRICITY":0.00071503,"INCLINATION":3.0655,"RA_OF_ASC_NODE":77.9873,"ARG_OF_PERICENTER":213.7245,"MEAN_ANOMALY":183.0625,"EPHEMERIS_TYPE":0,"CLASSIFICATION_TYPE":"U","NORAD_CAT_ID":2639,"ELEMENT_SET_NO":999,"REV_AT_EPOCH":11851,"BSTAR":0,"MEAN_MOTION_DOT":-2.48e-6,"MEAN_MOTION_DDOT":0},{"OBJECT_NAME":"INTELSAT 2-F3","OBJECT_ID":"1967-026A","EPOCH":"2026-04-04T17:58:43.853088","MEAN_MOTION":1.00320692,"ECCENTRICITY":0.00187105,"INCLINATION":3.9002,"RA_OF_ASC_NODE":68.4222,"ARG_OF_PERICENTER":227.8226,"MEAN_ANOMALY":178.9357,"EPHEMERIS_TYPE":0,"CLASSIFICATION_TYPE":"U","NORAD_CAT_ID":2717,"ELEMENT_SET_NO":999,"REV_AT_EPOCH":12316,"BSTAR":0,"MEAN_MOTION_DOT":9.0e-7,"MEAN_MOTION_DDOT":0},{"OBJECT_NAME":"TITAN 3C TRANSTAGE R/B","OBJECT_ID":"1967-040F","EPOCH":"2026-03-29T18:54:29.502144","MEAN_MOTION":0.50944311,"ECCENTRICITY":0.7908461,"INCLINATION":16.3869,"RA_OF_ASC_NODE":209.9412,"ARG_OF_PERICENTER":350.914,"MEAN_ANOMALY":359.2307,"EPHEMERIS_TYPE":0,"CLASSIFICATION_TYPE":"U","NORAD_CAT_ID":2770,"ELEMENT_SET_NO":999,"REV_AT_EPOCH":2289,"BSTAR":0,"MEAN_MOTION_DOT":-1.176e-5,"MEAN_MOTION_DDOT":0},{"OBJECT_NAME":"INTELSAT 2-F4","OBJECT_ID":"1967-094A","EPOCH":"2026-04-04T14:00:21.710304","MEAN_MOTION":1.00379995,"ECCENTRICITY":0.000996,"INCLINATION":3.8901,"RA_OF_ASC_NODE":74.9541,"ARG_OF_PERICENTER":150.5289,"MEAN_ANOMALY":74.1289,"EPHEMERIS_TYPE":0,"CLASSIFICATION_TYPE":"U","NORAD_CAT_ID":2969,"ELEMENT_SET_NO":999,"REV_AT_EPOCH":11457,"BSTAR":0,"MEAN_MOTION_DOT":-1.15e-6,"MEAN_MOTION_DDOT":0},{"OBJECT_NAME":"ATS 3","OBJECT_ID":"1967-111A","EPOCH":"2026-04-04T13:59:51.758016","MEAN_MOTION":1.00271842,"ECCENTRICITY":0.0014922,"INCLINATION":2.9892,"RA_OF_ASC_NODE":79.2139,"ARG_OF_PERICENTER":30.0354,"MEAN_ANOMALY":188.3329,"EPHEMERIS_TYPE":0,"CLASSIFICATION_TYPE":"U","NORAD_CAT_ID":3029,"ELEMENT_SET_NO":999,"REV_AT_EPOCH":21389,"BSTAR":0,"MEAN_MOTION_DOT":-8.6e-7,"MEAN_MOTION_DDOT":0},{"OBJECT_NAME":"OPS 2222","OBJECT_ID":"1968-063A","EPOCH":"2026-04-04T20:22:54.988320","MEAN_MOTION":0.99258059,"ECCENTRICITY":0.08951833,"INCLINATION":6.1063,"RA_OF_ASC_NODE":282.9359,"ARG_OF_PERICENTER":229.8878,"MEAN_ANOMALY":138.2828,"EPHEMERIS_TYPE":0,"CLASSIFICATION_TYPE":"U","NORAD_CAT_ID":3334,"ELEMENT_SET_NO":999,"REV_AT_EPOCH":2540,"BSTAR":0,"MEAN_MOTION_DOT":-3.51e-6,"MEAN_MOTION_DDOT":0},{"OBJECT_NAME":"OV2-5","OBJECT_ID":"1968-081A","EPOCH":"2026-04-04T21:19:10.264800","MEAN_MOTION":1.01555938,"ECCENTRICITY":0.00810127,"INCLINATION":1.8544,"RA_OF_ASC_NODE":48.5984,"ARG_OF_PERICENTER":284.2678,"MEAN_ANOMALY":175.0785,"EPHEMERIS_TYPE":0,"CLASSIFICATION_TYPE":"U","NORAD_CAT_ID":3428,"ELEMENT_SET_NO":999,"REV_AT_EPOCH":12031,"BSTAR":0,"MEAN_MOTION_DOT":8.1e-7,"MEAN_MOTION_DDOT":0},{"OBJECT_NAME":"LES-6","OBJECT_ID":"1968-081D","EPOCH":"2026-04-04T12:05:09.667104","MEAN_MOTION":1.00294056,"ECCENTRICITY":0.0010049,"INCLINATION":1.413,"RA_OF_ASC_NODE":36.4243,"ARG_OF_PERICENTER":302.458,"MEAN_ANOMALY":247.9756,"EPHEMERIS_TYPE":0,"CLASSIFICATION_TYPE":"U","NORAD_CAT_ID":3431,"ELEMENT_SET_NO":999,"REV_AT_EPOCH":12004,"BSTAR":0,"MEAN_MOTION_DOT":1.25e-6,"MEAN_MOTION_DDOT":0},{"OBJECT_NAME":"TITAN 3C TRANSTAGE R/B","OBJECT_ID":"1968-081E","EPOCH":"2026-04-04T21:05:34.069920","MEAN_MOTION":1.01517823,"ECCENTRICITY":0.0094875,"INCLINATION":1.8136,"RA_OF_ASC_NODE":48.5242,"ARG_OF_PERICENTER":277.7694,"MEAN_ANOMALY":129.9697,"EPHEMERIS_TYPE":0,"CLASSIFICATION_TYPE":"U","NORAD_CAT_ID":3432,"ELEMENT_SET_NO":999,"REV_AT_EPOCH":12124,"BSTAR":0,"MEAN_MOTION_DOT":-1.63e-6,"MEAN_MOTION_DDOT":0},{"OBJECT_NAME":"OPS 0757 (TACSAT)","OBJECT_ID":"1969-013A","EPOCH":"2026-04-04T21:09:11.223360","MEAN_MOTION":1.00414333,"ECCENTRICITY":0.00203639,"INCLINATION":2.6636,"RA_OF_ASC_NODE":74.9462,"ARG_OF_PERICENTER":181.0495,"MEAN_ANOMALY":214.7364,"EPHEMERIS_TYPE":0,"CLASSIFICATION_TYPE":"U","NORAD_CAT_ID":3691,"ELEMENT_SET_NO":999,"REV_AT_EPOCH":11337,"BSTAR":0,"MEAN_MOTION_DOT":-2.45e-6,"MEAN_MOTION_DDOT":0},{"OBJECT_NAME":"TITAN 3C TRANSTAGE R/B","OBJECT_ID":"1969-013B","EPOCH":"2026-04-04T20:23:32.428032","MEAN_MOTION":0.97537032,"ECCENTRICITY":0.01656975,"INCLINATION":1.1176,"RA_OF_ASC_NODE":77.416,"ARG_OF_PERICENTER":36.4006,"MEAN_ANOMALY":185.8598,"EPHEMERIS_TYPE":0,"CLASSIFICATION_TYPE":"U","NORAD_CAT_ID":3692,"ELEMENT_SET_NO":999,"REV_AT_EPOCH":4160,"BSTAR":0,"MEAN_MOTION_DOT":-2.85e-6,"MEAN_MOTION_DDOT":0},{"OBJECT_NAME":"TITAN 3C TRANSTAGE R/B","OBJECT_ID":"1969-046F","EPOCH":"2026-04-05T23:44:34.514304","MEAN_MOTION":0.46197783,"ECCENTRICITY":0.80226957,"INCLINATION":17.2265,"RA_OF_ASC_NODE":36.486,"ARG_OF_PERICENTER":269.0489,"MEAN_ANOMALY":0.7518,"EPHEMERIS_TYPE":0,"CLASSIFICATION_TYPE":"U","NORAD_CAT_ID":3956,"ELEMENT_SET_NO":999,"REV_AT_EPOCH":2076,"BSTAR":0,"MEAN_MOTION_DOT":-3.96e-6,"MEAN_MOTION_DDOT":0},{"OBJECT_NAME":"ATS 5","OBJECT_ID":"1969-069A","EPOCH":"2026-04-04T21:16:55.479936","MEAN_MOTION":0.99496365,"ECCENTRICITY":0.00059111,"INCLINATION":0.2468,"RA_OF_ASC_NODE":198.0238,"ARG_OF_PERICENTER":84.7008,"MEAN_ANOMALY":216.8144,"EPHEMERIS_TYPE":0,"CLASSIFICATION_TYPE":"U","NORAD_CAT_ID":4068,"ELEMENT_SET_NO":999,"REV_AT_EPOCH":4559,"BSTAR":0,"MEAN_MOTION_DOT":-2.01e-6,"MEAN_MOTION_DDOT":0},{"OBJECT_NAME":"ATLAS CENTAUR R/B","OBJECT_ID":"1969-069B","EPOCH":"2026-04-04T08:49:18.632064","MEAN_MOTION":2.04796954,"ECCENTRICITY":0.6679546,"INCLINATION":17.5096,"RA_OF_ASC_NODE":304.3935,"ARG_OF_PERICENTER":207.5979,"MEAN_ANOMALY":89.7993,"EPHEMERIS_TYPE":0,"CLASSIFICATION_TYPE":"U","NORAD_CAT_ID":4069,"ELEMENT_SET_NO":999,"REV_AT_EPOCH":42369,"BSTAR":0,"MEAN_MOTION_DOT":6.0e-7,"MEAN_MOTION_DDOT":0},{"OBJECT_NAME":"SKYNET 1A","OBJECT_ID":"1969-101A","EPOCH":"2026-04-04T14:00:29.198592","MEAN_MOTION":1.00271167,"ECCENTRICITY":0.0024761,"INCLINATION":0.2522,"RA_OF_ASC_NODE":76.4756,"ARG_OF_PERICENTER":166.6819,"MEAN_ANOMALY":56.7661,"EPHEMERIS_TYPE":0,"CLASSIFICATION_TYPE":"U","NORAD_CAT_ID":4250,"ELEMENT_SET_NO":999,"REV_AT_EPOCH":13377,"BSTAR":0,"MEAN_MOTION_DOT":-1.01e-6,"MEAN_MOTION_DDOT":0},{"OBJECT_NAME":"NATO 2A","OBJECT_ID":"1970-021A","EPOCH":"2026-04-04T15:15:32.693184","MEAN_MOTION":1.0028061,"ECCENTRICITY":0.0002405,"INCLINATION":0.5931,"RA_OF_ASC_NODE":299.2836,"ARG_OF_PERICENTER":320.2929,"MEAN_ANOMALY":55.2195,"EPHEMERIS_TYPE":0,"CLASSIFICATION_TYPE":"U","NORAD_CAT_ID":4353,"ELEMENT_SET_NO":999,"REV_AT_EPOCH":12503,"BSTAR":0,"MEAN_MOTION_DOT":-7.8e-7,"MEAN_MOTION_DDOT":0},{"OBJECT_NAME":"INTELSAT 3-F7","OBJECT_ID":"1970-032A","EPOCH":"2026-04-04T09:22:21.419616","MEAN_MOTION":1.0035463,"ECCENTRICITY":0.00044419,"INCLINATION":2.2378,"RA_OF_ASC_NODE":89.2,"ARG_OF_PERICENTER":231.5059,"MEAN_ANOMALY":128.9539,"EPHEMERIS_TYPE":0,"CLASSIFICATION_TYPE":"U","NORAD_CAT_ID":4376,"ELEMENT_SET_NO":999,"REV_AT_EPOCH":4662,"BSTAR":0,"MEAN_MOTION_DOT":-3.61e-6,"MEAN_MOTION_DDOT":0}]
